[{"OBJECT_NAME":"CZ-2F R/B","OBJECT_ID":"2026-024B","EPOCH":"2026-03-06T12:16:45.943104","MEAN_MOTION":15.34181128,"ECCENTRICITY":0.01748396,"INCLINATION":49.9883,"RA_OF_ASC_NODE":30.5366,"ARG_OF_PERICENTER":261.6904,"MEAN_ANOMALY":96.4198,"EPHEMERIS_TYPE":0,"CLASSIFICATION_TYPE":"U","NORAD_CAT_ID":67690,"ELEMENT_SET_NO":999,"REV_AT_EPOCH":420,"BSTAR":0.00038607035,"MEAN_MOTION_DOT":0.00021096,"MEAN_MOTION_DDOT":0},{"OBJECT_NAME":"CZ-2F DEB","OBJECT_ID":"2026-024C","EPOCH":"2026-03-06T08:32:16.368000","MEAN_MOTION":16.01164555,"ECCENTRICITY":0.01388768,"INCLINATION":49.9031,"RA_OF_ASC_NODE":22.2857,"ARG_OF_PERICENTER":275.8704,"MEAN_ANOMALY":82.6466,"EPHEMERIS_TYPE":0,"CLASSIFICATION_TYPE":"U","NORAD_CAT_ID":67691,"ELEMENT_SET_NO":999,"REV_AT_EPOCH":428,"BSTAR":0.00072549794,"MEAN_MOTION_DOT":0.01397015,"MEAN_MOTION_DDOT":1.1112508e-5},{"OBJECT_NAME":"CZ-2F DEB","OBJECT_ID":"2026-024D","EPOCH":"2026-03-06T14:17:37.591872","MEAN_MOTION":15.24289121,"ECCENTRICITY":0.02357171,"INCLINATION":50.319,"RA_OF_ASC_NODE":33.8879,"ARG_OF_PERICENTER":267.8212,"MEAN_ANOMALY":89.5742,"EPHEMERIS_TYPE":0,"CLASSIFICATION_TYPE":"U","NORAD_CAT_ID":67692,"ELEMENT_SET_NO":999,"REV_AT_EPOCH":415,"BSTAR":0.004572804,"MEAN_MOTION_DOT":0.00261152,"MEAN_MOTION_DDOT":0},{"OBJECT_NAME":"STARLINK-36748","OBJECT_ID":"2026-025A","EPOCH":"2026-03-06T07:14:54.846816","MEAN_MOTION":15.75226449,"ECCENTRICITY":0.000264,"INCLINATION":97.284,"RA_OF_ASC_NODE":176.6665,"ARG_OF_PERICENTER":356.9972,"MEAN_ANOMALY":3.1277,"EPHEMERIS_TYPE":0,"CLASSIFICATION_TYPE":"U","NORAD_CAT_ID":67693,"ELEMENT_SET_NO":999,"REV_AT_EPOCH":540,"BSTAR":0.0012560251,"MEAN_MOTION_DOT":0.00191798,"MEAN_MOTION_DDOT":0},{"OBJECT_NAME":"STARLINK-36753","OBJECT_ID":"2026-025B","EPOCH":"2026-03-06T07:03:43.897248","MEAN_MOTION":15.75224353,"ECCENTRICITY":0.00015393,"INCLINATION":97.286,"RA_OF_ASC_NODE":176.6769,"ARG_OF_PERICENTER":14.091,"MEAN_ANOMALY":346.0397,"EPHEMERIS_TYPE":0,"CLASSIFICATION_TYPE":"U","NORAD_CAT_ID":67694,"ELEMENT_SET_NO":999,"REV_AT_EPOCH":541,"BSTAR":0.0010596838,"MEAN_MOTION_DOT":0.00161187,"MEAN_MOTION_DDOT":0},{"OBJECT_NAME":"STARLINK-36750","OBJECT_ID":"2026-025C","EPOCH":"2026-03-06T13:52:11.868096","MEAN_MOTION":15.80998304,"ECCENTRICITY":0.00016546,"INCLINATION":97.2829,"RA_OF_ASC_NODE":177.0573,"ARG_OF_PERICENTER":121.8875,"MEAN_ANOMALY":238.2554,"EPHEMERIS_TYPE":0,"CLASSIFICATION_TYPE":"U","NORAD_CAT_ID":67695,"ELEMENT_SET_NO":999,"REV_AT_EPOCH":545,"BSTAR":0.0021321036,"MEAN_MOTION_DOT":0.00432767,"MEAN_MOTION_DDOT":0},{"OBJECT_NAME":"STARLINK-36401","OBJECT_ID":"2026-025D","EPOCH":"2026-03-06T11:18:21.300768","MEAN_MOTION":15.75269223,"ECCENTRICITY":0.0001133,"INCLINATION":97.2844,"RA_OF_ASC_NODE":176.8955,"ARG_OF_PERICENTER":61.3618,"MEAN_ANOMALY":298.7761,"EPHEMERIS_TYPE":0,"CLASSIFICATION_TYPE":"U","NORAD_CAT_ID":67696,"ELEMENT_SET_NO":999,"REV_AT_EPOCH":543,"BSTAR":0.0028994534,"MEAN_MOTION_DOT":0.0045795,"MEAN_MOTION_DDOT":0},{"OBJECT_NAME":"STARLINK-36704","OBJECT_ID":"2026-025E","EPOCH":"2026-03-06T07:00:41.034240","MEAN_MOTION":15.7523242,"ECCENTRICITY":0.00012717,"INCLINATION":97.284,"RA_OF_ASC_NODE":176.6777,"ARG_OF_PERICENTER":36.9478,"MEAN_ANOMALY":323.1875,"EPHEMERIS_TYPE":0,"CLASSIFICATION_TYPE":"U","NORAD_CAT_ID":67697,"ELEMENT_SET_NO":999,"REV_AT_EPOCH":540,"BSTAR":0.0013537106,"MEAN_MOTION_DOT":0.00207138,"MEAN_MOTION_DDOT":0},{"OBJECT_NAME":"STARLINK-36697","OBJECT_ID":"2026-025F","EPOCH":"2026-03-06T13:42:53.867520","MEAN_MOTION":15.80963251,"ECCENTRICITY":0.00048521,"INCLINATION":97.2842,"RA_OF_ASC_NODE":177.0661,"ARG_OF_PERICENTER":102.3152,"MEAN_ANOMALY":257.8659,"EPHEMERIS_TYPE":0,"CLASSIFICATION_TYPE":"U","NORAD_CAT_ID":67698,"ELEMENT_SET_NO":999,"REV_AT_EPOCH":545,"BSTAR":0.002643881,"MEAN_MOTION_DOT":0.00542791,"MEAN_MOTION_DDOT":0},{"OBJECT_NAME":"STARLINK-36716","OBJECT_ID":"2026-025G","EPOCH":"2026-03-06T14:00:01.000224","MEAN_MOTION":15.75164815,"ECCENTRICITY":0.00013295,"INCLINATION":97.2841,"RA_OF_ASC_NODE":177.0561,"ARG_OF_PERICENTER":98.0661,"MEAN_ANOMALY":280.2519,"EPHEMERIS_TYPE":0,"CLASSIFICATION_TYPE":"U","NORAD_CAT_ID":67699,"ELEMENT_SET_NO":999,"REV_AT_EPOCH":551,"BSTAR":0.00011726629,"MEAN_MOTION_DOT":0.00017378,"MEAN_MOTION_DDOT":0},{"OBJECT_NAME":"STARLINK-36712","OBJECT_ID":"2026-025H","EPOCH":"2026-03-06T12:52:22.682496","MEAN_MOTION":15.75301259,"ECCENTRICITY":0.00011263,"INCLINATION":97.2851,"RA_OF_ASC_NODE":176.9588,"ARG_OF_PERICENTER":359.6609,"MEAN_ANOMALY":0.4656,"EPHEMERIS_TYPE":0,"CLASSIFICATION_TYPE":"U","NORAD_CAT_ID":67700,"ELEMENT_SET_NO":999,"REV_AT_EPOCH":544,"BSTAR":0.0030154163,"MEAN_MOTION_DOT":0.00478076,"MEAN_MOTION_DDOT":0},{"OBJECT_NAME":"STARLINK-36713","OBJECT_ID":"2026-025J","EPOCH":"2026-03-06T11:23:25.918656","MEAN_MOTION":15.75297661,"ECCENTRICITY":4.808e-5,"INCLINATION":97.2851,"RA_OF_ASC_NODE":176.8886,"ARG_OF_PERICENTER":12.8637,"MEAN_ANOMALY":347.264,"EPHEMERIS_TYPE":0,"CLASSIFICATION_TYPE":"U","NORAD_CAT_ID":67701,"ELEMENT_SET_NO":999,"REV_AT_EPOCH":544,"BSTAR":0.0013746871,"MEAN_MOTION_DOT":0.00211044,"MEAN_MOTION_DDOT":0},{"OBJECT_NAME":"STARLINK-36695","OBJECT_ID":"2026-025K","EPOCH":"2026-03-06T11:26:29.002848","MEAN_MOTION":15.75312473,"ECCENTRICITY":0.00013699,"INCLINATION":97.2858,"RA_OF_ASC_NODE":176.8853,"ARG_OF_PERICENTER":49.9976,"MEAN_ANOMALY":310.1409,"EPHEMERIS_TYPE":0,"CLASSIFICATION_TYPE":"U","NORAD_CAT_ID":67702,"ELEMENT_SET_NO":999,"REV_AT_EPOCH":543,"BSTAR":0.0020468989,"MEAN_MOTION_DOT":0.0031853,"MEAN_MOTION_DDOT":0},{"OBJECT_NAME":"STARLINK-36630","OBJECT_ID":"2026-025L","EPOCH":"2026-03-06T15:04:19.075584","MEAN_MOTION":15.77217633,"ECCENTRICITY":0.00011298,"INCLINATION":97.2847,"RA_OF_ASC_NODE":177.1413,"ARG_OF_PERICENTER":52.7921,"MEAN_ANOMALY":307.3448,"EPHEMERIS_TYPE":0,"CLASSIFICATION_TYPE":"U","NORAD_CAT_ID":67703,"ELEMENT_SET_NO":999,"REV_AT_EPOCH":546,"BSTAR":-0.0065066065,"MEAN_MOTION_DOT":-0.00950061,"MEAN_MOTION_DDOT":0},{"OBJECT_NAME":"STARLINK-36338","OBJECT_ID":"2026-025M","EPOCH":"2026-03-06T13:58:26.734368","MEAN_MOTION":15.75272259,"ECCENTRICITY":0.00013523,"INCLINATION":97.2839,"RA_OF_ASC_NODE":177.0469,"ARG_OF_PERICENTER":86.1605,"MEAN_ANOMALY":273.9815,"EPHEMERIS_TYPE":0,"CLASSIFICATION_TYPE":"U","NORAD_CAT_ID":67704,"ELEMENT_SET_NO":999,"REV_AT_EPOCH":545,"BSTAR":0.0015032386,"MEAN_MOTION_DOT":0.00231081,"MEAN_MOTION_DDOT":0},{"OBJECT_NAME":"STARLINK-36316","OBJECT_ID":"2026-025N","EPOCH":"2026-03-06T12:41:11.245632","MEAN_MOTION":15.7530958,"ECCENTRICITY":0.00034378,"INCLINATION":97.2854,"RA_OF_ASC_NODE":176.9686,"ARG_OF_PERICENTER":122.9225,"MEAN_ANOMALY":237.2371,"EPHEMERIS_TYPE":0,"CLASSIFICATION_TYPE":"U","NORAD_CAT_ID":67705,"ELEMENT_SET_NO":999,"REV_AT_EPOCH":544,"BSTAR":0.0015614603,"MEAN_MOTION_DOT":0.00240733,"MEAN_MOTION_DDOT":0}]
