CZ-2F R/B               
1 67690U 26024B   26065.51164286  .00021096  00000+0  38607-3 0  9998
2 67690  49.9883  30.5366 0174839 261.6904  96.4198 15.34181128  4201
CZ-2F DEB               
1 67691U 26024C   26065.35574500  .01397015  11113-4  72550-3 0  9990
2 67691  49.9031  22.2857 0138876 275.8704  82.6466 16.01164555  4289
CZ-2F DEB               
1 67692U 26024D   26065.59557398  .00261152  00000+0  45728-2 0  9998
2 67692  50.3190  33.8879 0235717 267.8212  89.5742 15.24289121  4151
STARLINK-36748          
1 67693U 26025A   26065.30202369  .00191798  00000+0  12560-2 0  9990
2 67693  97.2840 176.6665 0002640 356.9972   3.1277 15.75226449  5407
STARLINK-36753          
1 67694U 26025B   26065.29425807  .00161187  00000+0  10597-2 0  9990
2 67694  97.2860 176.6769 0001539  14.0910 346.0397 15.75224353  5410
STARLINK-36750          
1 67695U 26025C   26065.57791514  .00432767  00000+0  21321-2 0  9995
2 67695  97.2829 177.0573 0001654 121.8875 238.2554 15.80998304  5450
STARLINK-36401          
1 67696U 26025D   26065.47107987  .00457950  00000+0  28995-2 0  9995
2 67696  97.2844 176.8955 0001133  61.3618 298.7761 15.75269223  5438
STARLINK-36704          
1 67697U 26025E   26065.29214160  .00207138  00000+0  13537-2 0  9995
2 67697  97.2840 176.6777 0001271  36.9478 323.1875 15.75232420  5405
STARLINK-36697          
1 67698U 26025F   26065.57145680  .00542791  00000+0  26439-2 0  9999
2 67698  97.2842 177.0661 0004852 102.3152 257.8659 15.80963251  5457
STARLINK-36716          
1 67699U 26025G   26065.58334491  .00017378  00000+0  11727-3 0  9994
2 67699  97.2841 177.0561 0001329  98.0661 280.2519 15.75164815  5513
STARLINK-36712          
1 67700U 26025H   26065.53637364  .00478076  00000+0  30154-2 0  9997
2 67700  97.2851 176.9588 0001126 359.6609   0.4656 15.75301259  5448
STARLINK-36713          
1 67701U 26025J   26065.47460554  .00211044  00000+0  13747-2 0  9995
2 67701  97.2851 176.8886 0000480  12.8637 347.2640 15.75297661  5446
STARLINK-36695          
1 67702U 26025K   26065.47672457  .00318530  00000+0  20469-2 0  9990
2 67702  97.2858 176.8853 0001369  49.9976 310.1409 15.75312473  5432
STARLINK-36630          
1 67703U 26025L   26065.62799856 -.00950061  00000+0 -65066-2 0  9996
2 67703  97.2847 177.1413 0001129  52.7921 307.3448 15.77217633  5461
STARLINK-36338          
1 67704U 26025M   26065.58225387  .00231081  00000+0  15032-2 0  9995
2 67704  97.2839 177.0469 0001352  86.1605 273.9815 15.75272259  5459
STARLINK-36316          
1 67705U 26025N   26065.52860238  .00240733  00000+0  15615-2 0  9991
2 67705  97.2854 176.9686 0003437 122.9225 237.2371 15.75309580  5446
